ACS3                    
1 59588U 24077B   24214.75068553  .00000043  00000+0  84288-4 0  9997
2 59588  97.4037 272.3435 0019391 333.5156  26.5003 13.67694340 13634
